KUIPER-00079            
1 64826U 25151L   25295.42972105 -.00006460  00000+0 -81713-3 0  9993
2 64826  51.8992 191.6583 0012833 137.4874 222.7084 14.79950709 16032
KUIPER-00080            
1 64827U 25151M   25295.42505176  .00006579  00000+0  89060-3 0  9996
2 64827  51.8990 191.9782 0005646 154.7643 205.3596 14.79959485 14836
KUIPER-00082            
1 64828U 25151N   25295.50002315 -.01453107  00000+0 -15410+0 0  9993
2 64828  51.8959 179.4555 0005073 168.5650 174.2775 14.91816205  2337
KUIPER-00083            
1 64829U 25151P   25295.39672608 -.00003858  00000+0 -47649-3 0  9995
2 64829  51.9005 187.1076 0010441 142.7864 217.3824 14.79939894 16088
KUIPER-00084            
1 64830U 25151Q   25295.45364193  .00007060  00000+0  95349-3 0  9998
2 64830  51.8985 196.8478 0012127 118.2355 241.9833 14.79928544 14761
KUIPER-00085            
1 64831U 25151R   25295.50002315 -.00941327  00000+0 -97028-1 0  9999
2 64831  51.9027 179.5675 0008670 142.2189   7.6635 14.92581016  4464
KUIPER-00086            
1 64832U 25151S   25295.42786615  .00006743  00000+0  91186-3 0  9996
2 64832  51.9015 189.4726 0011791 138.7691 221.4164 14.79938394 14863
KUIPER-00087            
1 64833U 25151T   25295.50002315 -.00506855  00000+0 -27891-1 0  9995
2 64833  51.8833 175.1037 0004730 171.7692 143.7662 15.15642377  1961
